NORAD_CAT_ID,OBJECT_NAME,OBJECT_TYPE,EPOCH,MEAN_MOTION,ECCENTRICITY,INCLINATION,RA_OF_ASC_NODE,ARG_OF_PERICENTER,MEAN_ANOMALY,BSTAR,MEAN_MOTION_DOT,MEAN_MOTION_DDOT,TLE_LINE0,TLE_LINE1,TLE_LINE2,SEMIMAJOR_AXIS,PERIOD,APOGEE,PERIGEE,DECAYED
56806.0,STARLINK-6072,PAYLOAD,2024-05-25 04:58:17,14.98324321,0.0002956,69.9995,152.0151,265.4956,94.5866,-3.1225e-05,-4.65e-06,0.0,0 STARLINK-6072,1 56806U 23078AR  24146.20714763 -.00000465  00000-0 -31225-4 0  9996,2 56806  69.9995 152.0151 0002956 265.4956  94.5866 14.98324321 56048,6950.21,96.107,574.13,570.021,0.0
56806.0,STARLINK-6072,PAYLOAD,2024-05-25 09:46:41,14.98324516,0.0003137,69.9993,151.5106,269.502,90.5779,-3.9709e-05,-5.67e-06,0.0,0 STARLINK-6072,1 56806U 23078AR  24146.40742888 -.00000567  00000-0 -39709-4 0  9995,2 56806  69.9993 151.5106 0003137 269.5020  90.5779 14.98324516 55818,6950.21,96.107,574.255,569.895,0.0
56806.0,STARLINK-6072,PAYLOAD,2024-05-25 19:23:31,14.98305315,0.0003015,69.9998,150.5008,277.1668,82.9148,-0.00026072,-3.2e-05,0.0,0 STARLINK-6072,1 56806U 23078AR  24146.80800750 -.00003200  00000-0 -26072-3 0  9997,2 56806  69.9998 150.5008 0003015 277.1668  82.9148 14.98305315 56138,6950.269,96.109,574.23,570.039,0.0
56806.0,STARLINK-6072,PAYLOAD,2024-05-26 05:00:18,14.98329541,0.0003155,69.999,149.4903,269.2105,90.8692,-3.492e-05,-5.1e-06,0.0,0 STARLINK-6072,1 56806U 23078AR  24147.20854641 -.00000510  00000-0 -34920-4 0  9993,2 56806  69.9990 149.4903 0003155 269.2105  90.8692 14.98329541 56199,6950.194,96.107,574.252,569.867,0.0
56806.0,STARLINK-6072,PAYLOAD,2024-05-26 09:48:40,14.98354524,0.0002957,69.9998,148.9861,272.0393,88.0427,0.00029598,3.443e-05,0.0,0 STARLINK-6072,1 56806U 23078AR  24147.40880459  .00003443  00000-0  29598-3 0  9991,2 56806  69.9998 148.9861 0002957 272.0393  88.0427 14.98354524 56222,6950.117,96.105,574.037,569.927,0.0
56806.0,STARLINK-6072,PAYLOAD,2024-05-26 17:49:22,14.98328735,0.0003184,69.999,148.1436,269.1158,90.9636,4.095e-05,3.96e-06,0.0,0 STARLINK-6072,1 56806U 23078AR  24147.74262491  .00000396  00000-0  40950-4 0  9998,2 56806  69.9990 148.1436 0003184 269.1158  90.9636 14.98328735 56277,6950.197,96.107,574.275,569.849,0.0
56806.0,STARLINK-6072,PAYLOAD,2024-05-27 09:50:43,14.98330685,0.0003193,69.999,146.4602,268.9024,91.1769,7.4329e-05,7.94e-06,0.0,0 STARLINK-6072,1 56806U 23078AR  24148.41022279  .00000794  00000-0  74329-4 0  9990,2 56806  69.9990 146.4602 0003193 268.9024  91.1769 14.98330685 56112,6950.191,96.107,574.275,569.837,0.0
56806.0,STARLINK-6072,PAYLOAD,2024-05-27 22:39:47,14.9833256,0.0003181,69.9991,145.114,269.0292,91.0503,4.479e-05,4.41e-06,0.0,0 STARLINK-6072,1 56806U 23078AR  24148.94430177  .00000441  00000-0  44790-4 0  9996,2 56806  69.9991 145.1140 0003181 269.0292  91.0503 14.98332560 56199,6950.185,96.107,574.261,569.839,0.0
56806.0,STARLINK-6072,PAYLOAD,2024-05-28 03:28:11,14.98332594,0.0003187,69.9991,144.609,268.5878,91.4916,4.2951e-05,4.2e-06,0.0,0 STARLINK-6072,1 56806U 23078AR  24149.14458128  .00000420  00000-0  42951-4 0  9999,2 56806  69.9991 144.6090 0003187 268.5878  91.4916 14.98332594 56488,6950.185,96.107,574.265,569.835,0.0
56806.0,STARLINK-6072,PAYLOAD,2024-05-28 09:52:43,14.98334723,0.0003182,69.999,143.9357,267.9316,92.1479,4.6802e-05,4.66e-06,0.0,0 STARLINK-6072,1 56806U 23078AR  24149.41161907  .00000466  00000-0  46802-4 0  9994,2 56806  69.9990 143.9357 0003182 267.9316  92.1479 14.98334723 56264,6950.178,96.107,574.255,569.832,0.0
56806.0,STARLINK-6072,PAYLOAD,2024-05-28 22:41:48,14.9833183,0.000303,69.9994,142.5894,264.3322,95.7492,-2.3053e-05,-3.68e-06,0.0,0 STARLINK-6072,1 56806U 23078AR  24149.94570160 -.00000368  00000-0 -23053-4 0  9993,2 56806  69.9994 142.5894 0003030 264.3322  95.7492 14.98331830 56348,6950.187,96.107,574.158,569.946,0.0
56806.0,STARLINK-6072,PAYLOAD,2024-05-29 05:06:20,14.98330601,0.0003023,69.9994,141.9159,266.1622,93.9192,-3.2382e-05,-4.79e-06,0.0,0 STARLINK-6072,1 56806U 23078AR  24150.21274247 -.00000479  00000-0 -32382-4 0  9990,2 56806  69.9994 141.9159 0003023 266.1622  93.9192 14.98330601 56645,6950.191,96.107,574.157,569.955,0.0
56806.0,STARLINK-6072,PAYLOAD,2024-05-29 09:54:45,14.98329878,0.0003035,69.9994,141.4109,266.8042,93.277,-3.953e-05,-5.65e-06,0.0,0 STARLINK-6072,1 56806U 23078AR  24150.41302305 -.00000565  00000-0 -39530-4 0  9997,2 56806  69.9994 141.4109 0003035 266.8042  93.2770 14.98329878 56415,6950.193,96.107,574.168,569.949,0.0
56806.0,STARLINK-6072,PAYLOAD,2024-05-29 22:43:49,14.98334055,0.0003071,69.9993,140.0642,267.7648,92.3159,-9.9722e-06,-2.12e-06,0.0,0 STARLINK-6072,1 56806U 23078AR  24150.94709861 -.00000212  00000-0 -99722-5 0  9992,2 56806  69.9993 140.0642 0003071 267.7648  92.3159 14.98334055 56495,6950.18,96.107,574.18,569.911,0.0
56806.0,STARLINK-6072,PAYLOAD,2024-05-30 05:08:21,14.98334339,0.0003066,69.9993,139.391,267.1764,92.9045,-4.2627e-06,-1.44e-06,0.0,0 STARLINK-6072,1 56806U 23078AR  24151.21413746 -.00000144  00000-0 -42627-5 0  9993,2 56806  69.9993 139.3910 0003066 267.1764  92.9045 14.98334339 56799,6950.179,96.107,574.175,569.914,0.0
56806.0,STARLINK-6072,PAYLOAD,2024-05-30 09:56:45,14.9833461,0.000305,69.9993,138.886,267.026,93.055,5.4181e-07,-8.7e-07,0.0,0 STARLINK-6072,1 56806U 23078AR  24151.41441655 -.00000087  00000-0  54181-6 0  9999,2 56806  69.9993 138.8860 0003050 267.0260  93.0550 14.98334610 56560,6950.179,96.107,574.163,569.924,0.0
56806.0,STARLINK-6072,PAYLOAD,2024-05-30 22:45:50,14.98327027,0.0002984,69.9994,137.5394,267.4975,92.5842,1.2331e-06,-7.8e-07,0.0,0 STARLINK-6072,1 56806U 23078AR  24151.94850086 -.00000078  00000-0  12331-5 0  9999,2 56806  69.9994 137.5394 0002984 267.4975  92.5842 14.98327027 56642,6950.202,96.107,574.141,569.993,0.0
56806.0,STARLINK-6072,PAYLOAD,2024-05-31 05:10:22,14.98326396,0.000301,69.9995,136.8661,266.6495,93.432,-8.2358e-06,-1.91e-06,0.0,0 STARLINK-6072,1 56806U 23078AR  24152.21554176 -.00000191  00000-0 -82358-5 0  9994,2 56806  69.9995 136.8661 0003010 266.6495  93.4320 14.98326396 56943,6950.204,96.107,574.161,569.977,0.0
56806.0,STARLINK-6072,PAYLOAD,2024-05-31 09:58:47,14.9832671,0.0003061,69.9993,136.3609,268.6721,91.4087,-9.8697e-06,-2.11e-06,0.0,0 STARLINK-6072,1 56806U 23078AR  24152.41582202 -.00000211  00000-0 -98697-5 0  9993,2 56806  69.9993 136.3609 0003061 268.6721  91.4087 14.98326710 56711,6950.203,96.107,574.196,569.941,0.0
56806.0,STARLINK-6072,PAYLOAD,2024-05-31 22:47:51,14.98331114,0.0003078,69.9993,135.0146,269.7028,90.3779,-1.5617e-05,-2.79e-06,0.0,0 STARLINK-6072,1 56806U 23078AR  24152.94989958 -.00000279  00000-0 -15617-4 0  9994,2 56806  69.9993 135.0146 0003078 269.7028  90.3779 14.98331114 56791,6950.189,96.107,574.194,569.915,0.0
56806.0,STARLINK-6072,PAYLOAD,2024-06-01 05:12:23,14.98332295,0.00031,69.9993,134.3411,269.2625,90.8179,-1.2647e-05,-2.44e-06,0.0,0 STARLINK-6072,1 56806U 23078AR  24153.21693834 -.00000244  00000-0 -12647-4 0  9992,2 56806  69.9993 134.3411 0003100 269.2625  90.8179 14.98332295 57096,6950.186,96.107,574.205,569.896,0.0
56806.0,STARLINK-6072,PAYLOAD,2024-06-01 08:24:39,14.98332373,0.0003101,69.9994,134.0045,269.3396,90.7408,-1.0262e-05,-2.15e-06,0.0,0 STARLINK-6072,1 56806U 23078AR  24153.35045806 -.00000215  00000-0 -10262-4 0  9996,2 56806  69.9994 134.0045 0003101 269.3396  90.7408 14.98332373 56858,6950.186,96.107,574.206,569.895,0.0
56806.0,STARLINK-6072,PAYLOAD,2024-06-02 05:14:24,14.98327438,0.0003122,69.9995,131.8166,269.7382,90.342,1.4739e-05,8.3e-07,0.0,0 STARLINK-6072,1 56806U 23078AR  24154.21834090  .00000083  00000-0  14739-4 0  9997,2 56806  69.9995 131.8166 0003122 269.7382  90.3420 14.98327438 57240,6950.201,96.107,574.236,569.896,0.0
56806.0,STARLINK-6072,PAYLOAD,2024-06-02 08:26:40,14.98327727,0.000312,69.9995,131.4799,269.802,90.2782,1.7108e-05,1.11e-06,0.0,0 STARLINK-6072,1 56806U 23078AR  24154.35186082  .00000111  00000-0  17108-4 0  9998,2 56806  69.9995 131.4799 0003120 269.8020  90.2782 14.98327727 57001,6950.2,96.107,574.233,569.896,0.0
56806.0,STARLINK-6072,PAYLOAD,2024-06-03 05:16:25,14.98331161,0.0003076,69.9997,129.2919,268.6284,91.4523,6.1056e-06,-2e-07,0.0,0 STARLINK-6072,1 56806U 23078AR  24155.21973935 -.00000020  00000-0  61056-5 0  9997,2 56806  69.9997 129.2919 0003076 268.6284  91.4523 14.98331161 57396,6950.189,96.107,574.192,569.916,0.0
56806.0,STARLINK-6072,PAYLOAD,2024-06-03 08:28:41,14.98333182,0.0003093,69.9996,128.9552,269.9597,90.1208,2.2284e-05,1.73e-06,0.0,0 STARLINK-6072,1 56806U 23078AR  24155.35325747  .00000173  00000-0  22284-4 0  9991,2 56806  69.9996 128.9552 0003093 269.9597  90.1208 14.98333182 57159,6950.183,96.107,574.198,569.898,0.0
56806.0,STARLINK-6072,PAYLOAD,2024-06-03 21:17:45,14.98330709,0.000305,69.9998,127.6086,270.7372,89.3438,3.9413e-05,3.77e-06,0.0,0 STARLINK-6072,1 56806U 23078AR  24155.88733792  .00000377  00000-0  39413-4 0  9990,2 56806  69.9998 127.6086 0003050 270.7372  89.3438 14.98330709 57239,6950.191,96.107,574.176,569.936,0.0
56806.0,STARLINK-6072,PAYLOAD,2024-06-04 08:30:41,14.98335786,0.0002994,70.0,126.4307,269.9915,90.0901,8.2241e-05,8.89e-06,0.0,0 STARLINK-6072,1 56806U 23078AR  24156.35465242  .00000889  00000-0  82241-4 0  9990,2 56806  70.0000 126.4307 0002994 269.9915  90.0901 14.98335786 57568,6950.175,96.107,574.121,569.959,0.0
56806.0,STARLINK-6072,PAYLOAD,2024-06-04 22:55:54,14.98330641,0.0002843,70.0001,124.9164,268.049,92.0344,-1.3357e-05,-2.52e-06,0.0,0 STARLINK-6072,1 56806U 23078AR  24156.95549714 -.00000252  00000-0 -13357-4 0  9991,2 56806  70.0001 124.9164 0002843 268.0490  92.0344 14.98330641 57393,6950.191,96.107,574.032,570.08,0.0
56806.0,STARLINK-6072,PAYLOAD,2024-06-05 03:44:19,14.98330649,0.0002872,70.0001,124.4117,266.2435,93.8395,-1.5254e-05,-2.75e-06,0.0,0 STARLINK-6072,1 56806U 23078AR  24157.15577681 -.00000275  00000-0 -15254-4 0  9991,2 56806  70.0001 124.4117 0002872 266.2435  93.8395 14.98330649 57682,6950.191,96.107,574.052,570.06,0.0
